NORAD_CAT_ID,OBJECT_NAME,OBJECT_TYPE,EPOCH,MEAN_MOTION,ECCENTRICITY,INCLINATION,RA_OF_ASC_NODE,ARG_OF_PERICENTER,MEAN_ANOMALY,BSTAR,MEAN_MOTION_DOT,MEAN_MOTION_DDOT,TLE_LINE0,TLE_LINE1,TLE_LINE2,SEMIMAJOR_AXIS,PERIOD,APOGEE,PERIGEE,DECAYED
52862.0,STARLINK-4010,PAYLOAD,2022-11-06 20:33:14,15.08833714,0.0001440999999999,53.2179,95.6609,79.7218,280.3937,5.0918e-05,5.22e-06,0.0,0 STARLINK-4010,1 52862U 22062AJ  22310.85642147  .00000522  00000-0  50918-4 0  9996,2 52862  53.2179  95.6609 0001441  79.7218 280.3937 15.08833714 22412,6917.9,95.438,540.761,538.768,0.0
52862.0,STARLINK-4010,PAYLOAD,2022-11-07 18:48:38,15.088312900000002,0.000151,53.2177,91.4974,77.9288,282.1873,0.0001539,2.162e-05,0.0,0 STARLINK-4010,1 52862U 22062AJ  22311.78378414  .00002162  00000-0  15390-3 0  9998,2 52862  53.2177  91.4974 0001510  77.9288 282.1873 15.08831290 22060,6917.906999999997,95.438,540.817,538.727,0.0
52862.0,STARLINK-4010,PAYLOAD,2022-11-08 02:45:33,15.08841537,0.00015,53.2193,90.0097,84.0269,276.0894,0.00022632,3.316e-05,0.0,0 STARLINK-4010,1 52862U 22062AJ  22312.11497660  .00003316  00000-0  22632-3 0  9990,2 52862  53.2193  90.0097 0001500  84.0269 276.0894 15.08841537 22606,6917.876,95.437,540.778,538.703,0.0
52862.0,STARLINK-4010,PAYLOAD,2022-11-08 15:28:38,15.08850974,0.0001306,53.218,87.6318,77.0886,283.0252,0.00019155,2.763e-05,0.0,0 STARLINK-4010,1 52862U 22062AJ  22312.64489009  .00002763  00000-0  19155-3 0  9997,2 52862  53.2180  87.6318 0001306  77.0886 283.0252 15.08850974 22196,6917.847,95.437,540.615,538.808,0.0
52862.0,STARLINK-4010,PAYLOAD,2022-11-09 13:44:02,15.08839878,0.0001477,53.2187,83.4675,88.6976,271.4186,1.12e-05,-1.1e-06,0.0,0 STARLINK-4010,1 52862U 22062AJ  22313.57225486 -.00000110  00000-0  11200-4 0  9996,2 52862  53.2187  83.4675 0001477  88.6976 271.4186 15.08839878 22333,6917.880999999999,95.438,540.768,538.724,0.0
52862.0,STARLINK-4010,PAYLOAD,2022-11-09 15:19:26,15.08838273,0.0001463,53.218,83.1711,77.0212,283.0943,-5.0274e-06,-3.68e-06,0.0,0 STARLINK-4010,1 52862U 22062AJ  22313.63849683 -.00000368  00000-0 -50274-5 0  9995,2 52862  53.2180  83.1711 0001463  77.0212 283.0943 15.08838273 22837,6917.886,95.438,540.763,538.739,0.0
52862.0,STARLINK-4010,PAYLOAD,2022-11-09 20:05:35,15.08839695,0.000161,53.2182,82.2796,73.5338,286.5831,3.6257e-05,2.89e-06,0.0,0 STARLINK-4010,1 52862U 22062AJ  22313.83721464  .00000289  00000-0  36257-4 0  9997,2 52862  53.2182  82.2796 0001610  73.5338 286.5831 15.08839695 22378,6917.880999999999,95.438,540.86,538.633,0.0
52862.0,STARLINK-4010,PAYLOAD,2022-11-10 13:34:49,15.08843193,0.0001203,53.2184,79.0101,54.518,305.5924,-2.4256e-05,-6.74e-06,0.0,0 STARLINK-4010,1 52862U 22062AJ  22314.56585021 -.00000674  00000-0 -24256-4 0  9991,2 52862  53.2184  79.0101 0001203  54.5180 305.5924 15.08843193 22481,6917.871,95.437,540.568,538.903,0.0
52862.0,STARLINK-4010,PAYLOAD,2022-11-10 15:10:13,15.08832945,0.0001645,53.2187,78.7133,64.4715,295.6447,-0.00011422,-2.105e-05,0.0,0 STARLINK-4010,1 52862U 22062AJ  22314.63209874 -.00002105  00000-0 -11422-3 0  9999,2 52862  53.2187  78.7133 0001645  64.4715 295.6447 15.08832945 22492,6917.901999999999,95.438,540.905,538.629,0.0
52862.0,STARLINK-4010,PAYLOAD,2022-11-10 19:56:23,15.08829587,0.0001347,53.2189,77.8198,62.051,298.0618,-0.00014006,-2.516e-05,0.0,0 STARLINK-4010,1 52862U 22062AJ  22314.83082278 -.00002516  00000-0 -14006-3 0  9995,2 52862  53.2189  77.8198 0001347  62.0510 298.0618 15.08829587 23015,6917.9119999999975,95.438,540.7090000000002,538.845,0.0
52862.0,STARLINK-4010,PAYLOAD,2022-11-11 11:50:14,15.08830472,0.0001431,53.2185,74.8463,66.8973,293.217,6.5831e-05,7.6e-06,0.0,0 STARLINK-4010,1 52862U 22062AJ  22315.49321873  .00000760  00000-0  65831-4 0  9995,2 52862  53.2185  74.8463 0001431  66.8973 293.2170 15.08830472 22623,6917.91,95.438,540.764,538.785,0.0
52862.0,STARLINK-4010,PAYLOAD,2022-11-11 13:25:37,15.08833461,0.0001525,53.2185,74.5492,64.7534,295.3616,9.4128e-05,1.21e-05,0.0,0 STARLINK-4010,1 52862U 22062AJ  22315.55945703  .00001210  00000-0  94128-4 0  9998,2 52862  53.2185  74.5492 0001525  64.7534 295.3616 15.08833461 23121,6917.9,95.438,540.82,538.71,0.0
52862.0,STARLINK-4010,PAYLOAD,2022-11-11 19:47:10,15.08827238,0.0001555,53.2187,73.3593,67.3846,292.731,4.1459e-05,3.72e-06,0.0,0 STARLINK-4010,1 52862U 22062AJ  22315.82442442  .00000372  00000-0  41459-4 0  9997,2 52862  53.2187  73.3593 0001555  67.3846 292.7310 15.08827238 23161,6917.919,95.438,540.86,538.7090000000002,0.0
52862.0,STARLINK-4010,PAYLOAD,2022-11-12 13:16:24,15.08840607,0.0001784,53.2185,70.0913,51.1248,308.9903,0.00018189,2.608e-05,0.0,0 STARLINK-4010,1 52862U 22062AJ  22316.55305571  .00002608  00000-0  18189-3 0  9996,2 52862  53.2185  70.0913 0001784  51.1248 308.9903 15.08840607 23275,6917.879,95.438,540.9780000000002,538.509,0.0
52862.0,STARLINK-4010,PAYLOAD,2022-11-12 16:27:10,15.08844968,0.0001708,53.2184,69.4958,57.5332,302.5826,0.00021816,3.186e-05,0.0,0 STARLINK-4010,1 52862U 22062AJ  22316.68553276  .00003186  00000-0  21816-3 0  9990,2 52862  53.2184  69.4958 0001708  57.5332 302.5826 15.08844968 22801,6917.865,95.437,540.9119999999998,538.549,0.0
52862.0,STARLINK-4010,PAYLOAD,2022-11-13 11:31:48,15.08836167,0.0001594,53.2203,65.9259,75.2003,284.9165,5.980100000000001e-05,6.64e-06,0.0,0 STARLINK-4010,1 52862U 22062AJ  22317.48042268  .00000664  00000-0  59801-4 0  9997,2 52862  53.2203  65.9259 0001594  75.2003 284.9165 15.08836167 23412,6917.892,95.438,540.86,538.654,0.0
52862.0,STARLINK-4010,PAYLOAD,2022-11-13 16:17:58,15.08828618,0.0001488,53.2187,65.0338,64.1493,295.9652,-1.773e-05,-5.700000000000001e-06,0.0,0 STARLINK-4010,1 52862U 22062AJ  22317.67914875 -.00000570  00000-0 -17730-4 0  9993,2 52862  53.2187  65.0338 0001488  64.1493 295.9652 15.08828618 23442,6917.915,95.438,540.81,538.751,0.0
52862.0,STARLINK-4010,PAYLOAD,2022-11-14 00:14:53,15.08834961,0.000157,53.2192,63.5474,63.8141,296.3013,-1.9512e-05,-5.98e-06,0.0,0 STARLINK-4010,1 52862U 22062AJ  22318.01034582 -.00000598  00000-0 -19512-4 0  9990,2 52862  53.2192  63.5474 0001570  63.8141 296.3013 15.08834961 23499,6917.896,95.438,540.847,538.675,0.0
52862.0,STARLINK-4010,PAYLOAD,2022-11-14 11:22:36,15.08834001,0.0001601,53.2192,61.466,68.1548,291.9614,-7.9811e-05,-1.558e-05,0.0,0 STARLINK-4010,1 52862U 22062AJ  22318.47403069 -.00001558  00000-0 -79811-4 0  9995,2 52862  53.2192  61.4660 0001601  68.1548 291.9614 15.08834001 23074,6917.899,95.438,540.871,538.656,0.0
52862.0,STARLINK-4010,PAYLOAD,2022-11-14 17:44:08,15.08838975,0.0001597,53.219,60.2765,65.1845,294.9314,-2.9973000000000013e-05,-7.65e-06,0.0,0 STARLINK-4010,1 52862U 22062AJ  22318.73898653 -.00000765  00000-0 -29973-4 0  9994,2 52862  53.2190  60.2765 0001597  65.1845 294.9314 15.08838975 23115,6917.884,95.438,540.8530000000002,538.644,0.0
52862.0,STARLINK-4010,PAYLOAD,2022-11-15 06:27:13,15.08835433,0.0001492,53.2188,57.8971,60.65600000000001,299.4581,6.3505e-05,7.23e-06,0.0,0 STARLINK-4010,1 52862U 22062AJ  22319.26890562  .00000723  00000-0  63505-4 0  9995,2 52862  53.2188  57.8971 0001492  60.6560 299.4581 15.08835433 23685,6917.894,95.438,540.7909999999998,538.727,0.0
52862.0,STARLINK-4010,PAYLOAD,2022-11-15 12:48:46,15.08833691,0.0001528,53.2189,56.7079,60.8188,299.2957,0.00010911,1.449e-05,0.0,0 STARLINK-4010,1 52862U 22062AJ  22319.53386655  .00001449  00000-0  10911-3 0  9996,2 52862  53.2189  56.7079 0001528  60.8188 299.2957 15.08833691 23231,6917.9,95.438,540.822,538.7080000000002,0.0
52862.0,STARLINK-4010,PAYLOAD,2022-11-15 15:59:32,15.08837337,0.0001569,53.219,56.1131,60.7999,299.315,0.00013645,1.884e-05,0.0,0 STARLINK-4010,1 52862U 22062AJ  22319.66634421  .00001884  00000-0  13645-3 0  9997,2 52862  53.2190  56.1131 0001569  60.7999 299.3150 15.08837337 23259,6917.889,95.438,540.839,538.668,0.0
52862.0,STARLINK-4010,PAYLOAD,2022-11-16 12:39:33,15.08830719,0.0001599,53.2191,52.2475,62.8939,297.2216,6.0883e-05,6.81e-06,0.0,0 STARLINK-4010,1 52862U 22062AJ  22320.52747355  .00000681  00000-0  60883-4 0  9996,2 52862  53.2191  52.2475 0001599  62.8939 297.2216 15.08830719 23873,6917.909000000002,95.438,540.88,538.668,0.0
52862.0,STARLINK-4010,PAYLOAD,2022-11-16 15:50:20,15.08825865,0.0001557,53.2191,51.6528,60.3972,299.7175,-1.6572e-05,-5.52e-06,0.0,0 STARLINK-4010,1 52862U 22062AJ  22320.65995957 -.00000552  00000-0 -16572-4 0  9998,2 52862  53.2191  51.6528 0001557  60.3972 299.7175 15.08825865 23898,6917.924,95.438,540.866,538.711,0.0
52862.0,STARLINK-4010,PAYLOAD,2022-11-16 23:47:15,15.08831261,0.0001599,53.2192,50.166,62.2816,297.8338,2.553e-06,-2.47e-06,0.0,0 STARLINK-4010,1 52862U 22062AJ  22320.99115690 -.00000247  00000-0  25530-5 0  9998,2 52862  53.2192  50.1660 0001599  62.2816 297.8338 15.08831261 23947,6917.906999999997,95.438,540.878,538.6659999999998,0.0
52862.0,STARLINK-4010,PAYLOAD,2022-11-17 06:08:48,15.08838374,0.0001491,53.2192,48.9765,58.2575,301.8562,3.431e-05,2.58e-06,0.0,0 STARLINK-4010,1 52862U 22062AJ  22321.25611162  .00000258  00000-0  34310-4 0  9999,2 52862  53.2192  48.9765 0001491  58.2575 301.8562 15.08838374 23987,6917.885,95.438,540.7819999999998,538.719,0.0
52862.0,STARLINK-4010,PAYLOAD,2022-11-17 09:19:34,15.08834977,0.00014,53.2193,48.3819,61.5791,298.5342,-1.1432e-05,-4.7e-06,0.0,0 STARLINK-4010,1 52862U 22062AJ  22321.38859601 -.00000470  00000-0 -11432-4 0  9993,2 52862  53.2193  48.3819 0001400  61.5791 298.5342 15.08834977 23511,6917.896,95.438,540.729,538.7919999999998,0.0
52862.0,STARLINK-4010,PAYLOAD,2022-11-17 17:16:30,15.08829786,0.0001399,53.219,46.8951,58.1936,301.9192,-5.2337e-05,-1.121e-05,0.0,0 STARLINK-4010,1 52862U 22062AJ  22321.71980207 -.00001121  00000-0 -52337-4 0  9990,2 52862  53.2190  46.8951 0001399  58.1936 301.9192 15.08829786 24052,6917.9119999999975,95.438,540.744,538.809,0.0
